{"fetched_at":"2026-07-12T05:52:37.085Z","source":"https://celestrak.org/NORAD/elements/gp.php?GROUP=spire&FORMAT=JSON","constellation":"spire","records":[{"OBJECT_NAME":"LEMUR-2-GREENBERG","OBJECT_ID":"2017-042N","EPOCH":"2026-07-09T11:53:19.376160","CLASSIFICATION_TYPE":"U","MEAN_MOTION":15.32031511,"ECCENTRICITY":0.00071356,"INCLINATION":97.3831,"RA_OF_ASC_NODE":11.0293,"ARG_OF_PERICENTER":283.6729,"MEAN_ANOMALY":76.3718,"EPHEMERIS_TYPE":0,"NORAD_CAT_ID":42837,"ELEMENT_SET_NO":999,"REV_AT_EPOCH":49180,"BSTAR":0.0003749711,"MEAN_MOTION_DOT":0.00011532,"MEAN_MOTION_DDOT":0},{"OBJECT_NAME":"LEMUR-2-ANDIS","OBJECT_ID":"2017-042P","EPOCH":"2026-07-11T18:03:36.825984","CLASSIFICATION_TYPE":"U","MEAN_MOTION":15.35830402,"ECCENTRICITY":0.0007129,"INCLINATION":97.3677,"RA_OF_ASC_NODE":13.5506,"ARG_OF_PERICENTER":272.8241,"MEAN_ANOMALY":87.2186,"EPHEMERIS_TYPE":0,"NORAD_CAT_ID":42838,"ELEMENT_SET_NO":999,"REV_AT_EPOCH":49222,"BSTAR":0.00035909,"MEAN_MOTION_DOT":0.00012453,"MEAN_MOTION_DDOT":0},{"OBJECT_NAME":"LEMUR-2-MONSON","OBJECT_ID":"2017-042Q","EPOCH":"2026-07-10T11:15:45.883584","CLASSIFICATION_TYPE":"U","MEAN_MOTION":15.28674858,"ECCENTRICITY":0.00051568,"INCLINATION":97.4089,"RA_OF_ASC_NODE":11.9359,"ARG_OF_PERICENTER":266.7916,"MEAN_ANOMALY":93.2733,"EPHEMERIS_TYPE":0,"NORAD_CAT_ID":42839,"ELEMENT_SET_NO":999,"REV_AT_EPOCH":49172,"BSTAR":0.00034676682,"MEAN_MOTION_DOT":0.000096,"MEAN_MOTION_DDOT":0},{"OBJECT_NAME":"LEMUR-2-FURIAUS","OBJECT_ID":"2017-042R","EPOCH":"2026-07-10T17:54:39.577824","CLASSIFICATION_TYPE":"U","MEAN_MOTION":15.31036825,"ECCENTRICITY":0.00063598,"INCLINATION":97.3778,"RA_OF_ASC_NODE":10.1778,"ARG_OF_PERICENTER":347.2297,"MEAN_ANOMALY":12.8782,"EPHEMERIS_TYPE":0,"NORAD_CAT_ID":42840,"ELEMENT_SET_NO":999,"REV_AT_EPOCH":49181,"BSTAR":0.00040490136,"MEAN_MOTION_DOT":0.00012077,"MEAN_MOTION_DDOT":0},{"OBJECT_NAME":"LEMUR-2-DEMBITZ","OBJECT_ID":"2017-042T","EPOCH":"2026-07-11T11:38:16.488384","CLASSIFICATION_TYPE":"U","MEAN_MOTION":15.31034137,"ECCENTRICITY":0.00050207,"INCLINATION":97.3826,"RA_OF_ASC_NODE":13.9535,"ARG_OF_PERICENTER":291.4687,"MEAN_ANOMALY":68.6018,"EPHEMERIS_TYPE":0,"NORAD_CAT_ID":42842,"ELEMENT_SET_NO":999,"REV_AT_EPOCH":49206,"BSTAR":0.00030474705,"MEAN_MOTION_DOT":0.00009065,"MEAN_MOTION_DDOT":0},{"OBJECT_NAME":"LEMUR-2-ZACHARY","OBJECT_ID":"2017-042W","EPOCH":"2026-07-11T18:21:57.866976","CLASSIFICATION_TYPE":"U","MEAN_MOTION":15.52486995,"ECCENTRICITY":0.0002434,"INCLINATION":97.3581,"RA_OF_ASC_NODE":24.963,"ARG_OF_PERICENTER":265.2719,"MEAN_ANOMALY":94.8256,"EPHEMERIS_TYPE":0,"NORAD_CAT_ID":42845,"ELEMENT_SET_NO":999,"REV_AT_EPOCH":49301,"BSTAR":0.00051731,"MEAN_MOTION_DOT":0.00031651,"MEAN_MOTION_DDOT":0},{"OBJECT_NAME":"LEMUR-2-SPECIAL-K","OBJECT_ID":"2021-034F","EPOCH":"2026-07-11T18:34:00.361056","CLASSIFICATION_TYPE":"U","MEAN_MOTION":15.73471129,"ECCENTRICITY":0.0006864,"INCLINATION":97.5609,"RA_OF_ASC_NODE":281.5708,"ARG_OF_PERICENTER":215.577,"MEAN_ANOMALY":144.5037,"EPHEMERIS_TYPE":0,"NORAD_CAT_ID":48273,"ELEMENT_SET_NO":999,"REV_AT_EPOCH":28554,"BSTAR":0.0011555,"MEAN_MOTION_DOT":0.00163262,"MEAN_MOTION_DDOT":0},{"OBJECT_NAME":"LEMUR-2-EMBRIONOVIS","OBJECT_ID":"2023-084AQ","EPOCH":"2026-07-11T20:41:40.628256","CLASSIFICATION_TYPE":"U","MEAN_MOTION":15.38173955,"ECCENTRICITY":0.0008045,"INCLINATION":97.6309,"RA_OF_ASC_NODE":338.0236,"ARG_OF_PERICENTER":219.423,"MEAN_ANOMALY":140.643,"EPHEMERIS_TYPE":0,"NORAD_CAT_ID":56970,"ELEMENT_SET_NO":999,"REV_AT_EPOCH":17147,"BSTAR":0.00024216,"MEAN_MOTION_DOT":0.00009025,"MEAN_MOTION_DDOT":0},{"OBJECT_NAME":"LEMUR-2-DEVERILL-M-T","OBJECT_ID":"2023-100F","EPOCH":"2026-07-11T15:49:51.326112","CLASSIFICATION_TYPE":"U","MEAN_MOTION":15.40974428,"ECCENTRICITY":0.0004684,"INCLINATION":99.4462,"RA_OF_ASC_NODE":238.5083,"ARG_OF_PERICENTER":310.9621,"MEAN_ANOMALY":49.1213,"EPHEMERIS_TYPE":0,"NORAD_CAT_ID":57391,"ELEMENT_SET_NO":999,"REV_AT_EPOCH":16501,"BSTAR":0.00039957,"MEAN_MOTION_DOT":0.00016364,"MEAN_MOTION_DDOT":0},{"OBJECT_NAME":"LEMUR-2-NIMBUS2000","OBJECT_ID":"2024-022A","EPOCH":"2026-07-11T13:37:01.030656","CLASSIFICATION_TYPE":"U","MEAN_MOTION":15.41012848,"ECCENTRICITY":0.0009121,"INCLINATION":97.4092,"RA_OF_ASC_NODE":42.8889,"ARG_OF_PERICENTER":40.654,"MEAN_ANOMALY":319.5386,"EPHEMERIS_TYPE":0,"NORAD_CAT_ID":58899,"ELEMENT_SET_NO":999,"REV_AT_EPOCH":13602,"BSTAR":0.0003224,"MEAN_MOTION_DOT":0.00013238,"MEAN_MOTION_DDOT":0}]}
